{"type": "FeatureCollection", "features": [ {"type": "Feature", "properties": {"norad_id": 44506, "name": "GPS BIII-2  (PRN 18)", "group": "gnss", "lat": 26.027996938626575, "lon": -1.8626874632835593, "alt_km": 20327.75563609011, "timestamp": "2025-12-09T05:43:20.968264+00:00", "meta": {"OBJECT_NAME": "GPS BIII-2  (PRN 18)", "OBJECT_ID": "2019-056A", "EPOCH": "2025-12-07T10:30:03.799008", "MEAN_MOTION": 2.00565766, "ECCENTRICITY": 0.00577762, "INCLINATION": 55.723, "RA_OF_ASC_NODE": 338.7627, "ARG_OF_PERICENTER": 198.4737, "MEAN_ANOMALY": 333.4267, "EPHEMERIS_TYPE": 0, "CLASSIFICATION_TYPE": "U", "NORAD_CAT_ID": 44506, "ELEMENT_SET_NO": 999, "REV_AT_EPOCH": 4622, "BSTAR": 0, "MEAN_MOTION_DOT": -8.3e-07, "MEAN_MOTION_DDOT": 0}, "tle": {"line1": "1 44506U 19056A   25341.43754397 -.00000083  00000+0  00000+0 0  9997", "line2": "2 44506  55.7230 338.7627 0057776 198.4737 333.4267  2.00565766 46229"}}, "geometry": {"type": "Point", "coordinates": [-1.8626874632835593, 26.027996938626575]}}, {"type": "Feature", "properties": {"norad_id": 44542, "name": "BEIDOU-3 M24 (C46)", "group": "gnss", "lat": 40.124496125213234, "lon": -133.70705368459892, "alt_km": 21499.68798337023, "timestamp": "2025-12-09T05:43:20.968282+00:00", "meta": {"OBJECT_NAME": "BEIDOU-3 M24 (C46)", "OBJECT_ID": "2019-061A", "EPOCH": "2025-12-08T02:04:30.505152", "MEAN_MOTION": 1.86229279, "ECCENTRICITY": 0.00095745, "INCLINATION": 54.4002, "RA_OF_ASC_NODE": 189.1732, "ARG_OF_PERICENTER": 24.5539, "MEAN_ANOMALY": 335.5587, "EPHEMERIS_TYPE": 0, "CLASSIFICATION_TYPE": "U", "NORAD_CAT_ID": 44542, "ELEMENT_SET_NO": 999, "REV_AT_EPOCH": 4223, "BSTAR": 0, "MEAN_MOTION_DOT": 5.3e-07, "MEAN_MOTION_DDOT": 0}, "tle": {"line1": "1 44542U 19061A   25342.08646418  .00000053  00000+0  00000+0 0  9995", "line2": "2 44542  54.4002 189.1732 0009574  24.5539 335.5587  1.86229279 42233"}}, "geometry": {"type": "Point", "coordinates": [-133.70705368459892, 40.124496125213234]}}, {"type": "Feature", "properties": {"norad_id": 44543, "name": "BEIDOU-3 M23 (C45)", "group": "gnss", "lat": -27.700658170291447, "lon": 167.0087610016156, "alt_km": 21522.957610372967, "timestamp": "2025-12-09T05:43:20.968299+00:00", "meta": {"OBJECT_NAME": "BEIDOU-3 M23 (C45)", "OBJECT_ID": "2019-061B", "EPOCH": "2025-12-08T18:00:07.463232", "MEAN_MOTION": 1.8622754, "ECCENTRICITY": 0.0006087, "INCLINATION": 54.3989, "RA_OF_ASC_NODE": 189.119, "ARG_OF_PERICENTER": 23.0878, "MEAN_ANOMALY": 334.736, "EPHEMERIS_TYPE": 0, "CLASSIFICATION_TYPE": "U", "NORAD_CAT_ID": 44543, "ELEMENT_SET_NO": 999, "REV_AT_EPOCH": 4224, "BSTAR": 0, "MEAN_MOTION_DOT": 5e-07, "MEAN_MOTION_DDOT": 0}, "tle": {"line1": "1 44543U 19061B   25342.75008638  .00000050  00000+0  00000+0 0  9993", "line2": "2 44543  54.3989 189.1190 0006087  23.0878 334.7360  1.86227540 42241"}}, "geometry": {"type": "Point", "coordinates": [167.0087610016156, -27.700658170291447]}}, {"type": "Feature", "properties": {"norad_id": 44624, "name": "EUTELSAT 5 WEST B (EGNOS/PRN 121)", "group": "gnss", "lat": 0.0026676902079992553, "lon": 159.02548282834582, "alt_km": 35788.78856988817, "timestamp": "2025-12-09T05:43:20.968317+00:00", "meta": {"OBJECT_NAME": "EUTELSAT 5 WEST B (EGNOS/PRN 121)", "OBJECT_ID": "2019-067A", "EPOCH": "2025-12-08T18:43:01.461792", "MEAN_MOTION": 1.00270965, "ECCENTRICITY": 0.0003533, "INCLINATION": 0.0649, "RA_OF_ASC_NODE": 340.5321, "ARG_OF_PERICENTER": 278.06, "MEAN_ANOMALY": 94.9453, "EPHEMERIS_TYPE": 0, "CLASSIFICATION_TYPE": "U", "NORAD_CAT_ID": 44624, "ELEMENT_SET_NO": 999, "REV_AT_EPOCH": 2252, "BSTAR": 0, "MEAN_MOTION_DOT": -4e-07, "MEAN_MOTION_DDOT": 0}, "tle": {"line1": "1 44624U 19067A   25342.77987803 -.00000040  00000+0  00000+0 0  9991", "line2": "2 44624   0.0649 340.5321 0003533 278.0600  94.9453  1.00270965 22521"}}, "geometry": {"type": "Point", "coordinates": [159.02548282834582, 0.0026676902079992553]}}, {"type": "Feature", "properties": {"norad_id": 44709, "name": "BEIDOU-3 IGSO-3 (C40)", "group": "gnss", "lat": -4.148734336719531, "lon": -79.96957118171852, "alt_km": 35975.523888484975, "timestamp": "2025-12-09T05:43:20.968338+00:00", "meta": {"OBJECT_NAME": "BEIDOU-3 IGSO-3 (C40)", "OBJECT_ID": "2019-073A", "EPOCH": "2025-11-20T07:11:22.740000", "MEAN_MOTION": 1.00250097, "ECCENTRICITY": 0.0044538, "INCLINATION": 55.163, "RA_OF_ASC_NODE": 283.159, "ARG_OF_PERICENTER": 191.5856, "MEAN_ANOMALY": 168.2409, "EPHEMERIS_TYPE": 0, "CLASSIFICATION_TYPE": "U", "NORAD_CAT_ID": 44709, "ELEMENT_SET_NO": 999, "REV_AT_EPOCH": 2236, "BSTAR": 0, "MEAN_MOTION_DOT": -2.06e-06, "MEAN_MOTION_DDOT": 0}, "tle": {"line1": "1 44709U 19073A   25324.29956875 -.00000206  00000+0  00000+0 0  9998", "line2": "2 44709  55.1630 283.1590 0044538 191.5856 168.2409  1.00250097 22360"}}, "geometry": {"type": "Point", "coordinates": [-79.96957118171852, -4.148734336719531]}}, {"type": "Feature", "properties": {"norad_id": 44793, "name": "BEIDOU-3 M22 (C44)", "group": "gnss", "lat": 16.34871196793811, "lon": 114.23613666679017, "alt_km": 21537.675479475634, "timestamp": "2025-12-09T05:43:20.968362+00:00", "meta": {"OBJECT_NAME": "BEIDOU-3 M22 (C44)", "OBJECT_ID": "2019-078A", "EPOCH": "2025-12-05T05:48:12.053952", "MEAN_MOTION": 1.86231816, "ECCENTRICITY": 0.00057288, "INCLINATION": 54.1154, "RA_OF_ASC_NODE": 306.6493, "ARG_OF_PERICENTER": 22.8633, "MEAN_ANOMALY": 337.1445, "EPHEMERIS_TYPE": 0, "CLASSIFICATION_TYPE": "U", "NORAD_CAT_ID": 44793, "ELEMENT_SET_NO": 999, "REV_AT_EPOCH": 4103, "BSTAR": 0, "MEAN_MOTION_DOT": -6.9e-07, "MEAN_MOTION_DDOT": 0}, "tle": {"line1": "1 44793U 19078A   25339.24180618 -.00000069  00000+0  00000+0 0  9998", "line2": "2 44793  54.1154 306.6493 0005728  22.8633 337.1445  1.86231816 41037"}}, "geometry": {"type": "Point", "coordinates": [114.23613666679017, 16.34871196793811]}}, {"type": "Feature", "properties": {"norad_id": 44794, "name": "BEIDOU-3 M21 (C43)", "group": "gnss", "lat": 48.37531743849963, "lon": 1.040852401086262, "alt_km": 21516.904986113528, "timestamp": "2025-12-09T05:43:20.968380+00:00", "meta": {"OBJECT_NAME": "BEIDOU-3 M21 (C43)", "OBJECT_ID": "2019-078B", "EPOCH": "2025-12-08T14:25:34.118976", "MEAN_MOTION": 1.86227419, "ECCENTRICITY": 0.0003835, "INCLINATION": 54.0855, "RA_OF_ASC_NODE": 306.4969, "ARG_OF_PERICENTER": 9.829, "MEAN_ANOMALY": 350.1669, "EPHEMERIS_TYPE": 0, "CLASSIFICATION_TYPE": "U", "NORAD_CAT_ID": 44794, "ELEMENT_SET_NO": 999, "REV_AT_EPOCH": 4110, "BSTAR": 0, "MEAN_MOTION_DOT": -7.4e-07, "MEAN_MOTION_DDOT": 0}, "tle": {"line1": "1 44794U 19078B   25342.60108934 -.00000074  00000+0  00000+0 0  9990", "line2": "2 44794  54.0855 306.4969 0003835   9.8290 350.1669  1.86227419 41107"}}, "geometry": {"type": "Point", "coordinates": [1.040852401086262, 48.37531743849963]}}, {"type": "Feature", "properties": {"norad_id": 44850, "name": "COSMOS 2544 (759)", "group": "gnss", "lat": -17.463356155371454, "lon": -91.66683188776945, "alt_km": 19109.94505255595, "timestamp": "2025-12-09T05:43:20.968397+00:00", "meta": {"OBJECT_NAME": "COSMOS 2544 (759)", "OBJECT_ID": "2019-088A", "EPOCH": "2025-12-06T03:54:29.774304", "MEAN_MOTION": 2.13101814, "ECCENTRICITY": 0.0013818, "INCLINATION": 65.4565, "RA_OF_ASC_NODE": 80.1786, "ARG_OF_PERICENTER": 249.2792, "MEAN_ANOMALY": 110.5784, "EPHEMERIS_TYPE": 0, "CLASSIFICATION_TYPE": "U", "NORAD_CAT_ID": 44850, "ELEMENT_SET_NO": 999, "REV_AT_EPOCH": 4660, "BSTAR": 0, "MEAN_MOTION_DOT": -1.6e-07, "MEAN_MOTION_DDOT": 0}, "tle": {"line1": "1 44850U 19088A   25340.16284461 -.00000016  00000+0  00000+0 0  9999", "line2": "2 44850  65.4565  80.1786 0013818 249.2792 110.5784  2.13101814 46603"}}, "geometry": {"type": "Point", "coordinates": [-91.66683188776945, -17.463356155371454]}}, {"type": "Feature", "properties": {"norad_id": 44864, "name": "BEIDOU-3 M19 (C41)", "group": "gnss", "lat": -55.76495762853098, "lon": -33.504546898986426, "alt_km": 21488.621458263635, "timestamp": "2025-12-09T05:43:20.968415+00:00", "meta": {"OBJECT_NAME": "BEIDOU-3 M19 (C41)", "OBJECT_ID": "2019-090A", "EPOCH": "2025-12-02T22:27:31.551840", "MEAN_MOTION": 1.86231053, "ECCENTRICITY": 0.00175607, "INCLINATION": 56.3847, "RA_OF_ASC_NODE": 69.2872, "ARG_OF_PERICENTER": 284.9296, "MEAN_ANOMALY": 72.494, "EPHEMERIS_TYPE": 0, "CLASSIFICATION_TYPE": "U", "NORAD_CAT_ID": 44864, "ELEMENT_SET_NO": 999, "REV_AT_EPOCH": 4057, "BSTAR": 0, "MEAN_MOTION_DOT": -4.9e-07, "MEAN_MOTION_DDOT": 0}, "tle": {"line1": "1 44864U 19090A   25336.93578185 -.00000049  00000+0  00000+0 0  9992", "line2": "2 44864  56.3847  69.2872 0017560 284.9296  72.4940  1.86231053 40575"}}, "geometry": {"type": "Point", "coordinates": [-33.504546898986426, -55.76495762853098]}}, {"type": "Feature", "properties": {"norad_id": 44865, "name": "BEIDOU-3 M20 (C42)", "group": "gnss", "lat": -6.028398771822896, "lon": 65.09964707371608, "alt_km": 21505.216005438513, "timestamp": "2025-12-09T05:43:20.968440+00:00", "meta": {"OBJECT_NAME": "BEIDOU-3 M20 (C42)", "OBJECT_ID": "2019-090B", "EPOCH": "2025-12-08T06:57:34.455168", "MEAN_MOTION": 1.8623116, "ECCENTRICITY": 0.00149301, "INCLINATION": 56.3913, "RA_OF_ASC_NODE": 69.143, "ARG_OF_PERICENTER": 297.776, "MEAN_ANOMALY": 138.9742, "EPHEMERIS_TYPE": 0, "CLASSIFICATION_TYPE": "U", "NORAD_CAT_ID": 44865, "ELEMENT_SET_NO": 999, "REV_AT_EPOCH": 4066, "BSTAR": 0, "MEAN_MOTION_DOT": -4.5e-07, "MEAN_MOTION_DDOT": 0}, "tle": {"line1": "1 44865U 19090B   25342.28998212 -.00000045  00000+0  00000+0 0  9991", "line2": "2 44865  56.3913  69.1430 0014930 297.7760 138.9742  1.86231160 40662"}}, "geometry": {"type": "Point", "coordinates": [65.09964707371608, -6.028398771822896]}}]}